COMMENT,ORIGINATOR,NORAD_CAT_ID,OBJECT_NAME,OBJECT_TYPE,CLASSIFICATION_TYPE,INTLDES,EPOCH,EPOCH_MICROSECONDS,MEAN_MOTION,ECCENTRICITY,INCLINATION,RA_OF_ASC_NODE,ARG_OF_PERICENTER,MEAN_ANOMALY,EPHEMERIS_TYPE,ELEMENT_SET_NO,REV_AT_EPOCH,BSTAR,MEAN_MOTION_DOT,MEAN_MOTION_DDOT,FILE,TLE_LINE0,TLE_LINE1,TLE_LINE2,OBJECT_ID,OBJECT_NUMBER,SEMIMAJOR_AXIS,PERIOD,APOGEE,PERIGEE,DECAYED
GENERATED VIA SPACETRACK.ORG API,18 SPCS,38778,ASTRA 2F,PAYLOAD,U,12051A,2024-03-13 12:40:57,527904,1.00269164,0.0002545,0.076,253.0057,23.1036,113.9326,0,999,3284,0,1.4e-06,0,4223455,0 ASTRA 2F,1 38778U 12051A   24073.52844361  .00000140  00000-0  00000-0 0  9996,2 38778   0.0760 253.0057 0002545  23.1036 113.9326  1.00269164 32842,2012-051A,38778,42165.467,1436.134,35798.063,35776.601,0
GENERATED VIA SPACETRACK.ORG API,18 SPCS,38778,ASTRA 2F,PAYLOAD,U,12051A,2024-03-13 21:39:42,772032,1.00269397,0.0002529,0.075,252.6268,23.7741,248.6952,0,999,3285,0,1.4e-06,0,4223970,0 ASTRA 2F,1 38778U 12051A   24073.90257838  .00000140  00000-0  00000-0 0  9995,2 38778   0.0750 252.6268 0002529  23.7741 248.6952  1.00269397 32851,2012-051A,38778,42165.401,1436.131,35797.93,35776.603,0
GENERATED VIA SPACETRACK.ORG API,18 SPCS,38778,ASTRA 2F,PAYLOAD,U,12051A,2024-03-14 04:08:46,25952,1.00269583,0.0002533,0.0741,252.302,24.1048,346.2169,0,999,4201,0,1.4e-06,0,4224444,0 ASTRA 2F,1 38778U 12051A   24074.17275493  .00000140  00000-0  00000+0 0  9991,2 38778   0.0741 252.3020 0002533  24.1048 346.2169  1.00269583 42015,2012-051A,38778,42165.349,1436.128,35797.895,35776.534,0
GENERATED VIA SPACETRACK.ORG API,18 SPCS,38778,ASTRA 2F,PAYLOAD,U,12051A,2024-03-14 05:51:53,961120,1.00269624,0.0002533,0.074,252.2105,24.222,12.0444,0,999,3285,0,1.4e-06,0,4225152,0 ASTRA 2F,1 38778U 12051A   24074.24437455  .00000140  00000-0  00000-0 0  9998,2 38778   0.0740 252.2105 0002533  24.2220  12.0444  1.00269624 32851,2012-051A,38778,42165.338,1436.128,35797.883,35776.522,0
GENERATED VIA SPACETRACK.ORG API,18 SPCS,38778,ASTRA 2F,PAYLOAD,U,12051A,2024-03-14 21:19:42,779712,1.00270023,0.000251,0.0723,251.7395,24.9829,244.3386,0,999,3286,0,1.39e-06,0,4225645,0 ASTRA 2F,1 38778U 12051A   24074.88868958  .00000139  00000-0  00000-0 0  9992,2 38778   0.0723 251.7395 0002510  24.9829 244.3386  1.00270023 32865,2012-051A,38778,42165.226,1436.122,35797.674,35776.507,0
GENERATED VIA SPACETRACK.ORG API,18 SPCS,38778,ASTRA 2F,PAYLOAD,U,12051A,2024-03-15 04:12:09,756288,1.00270225,0.000251,0.0714,251.4124,25.4069,347.6349,0,999,4202,0,1.39e-06,0,4226065,0 ASTRA 2F,1 38778U 12051A   24075.17511292  .00000139  00000-0  00000+0 0  9990,2 38778   0.0714 251.4124 0002510  25.4069 347.6349  1.00270225 42023,2012-051A,38778,42165.169,1436.119,35797.618,35776.451,0
GENERATED VIA SPACETRACK.ORG API,18 SPCS,38778,ASTRA 2F,PAYLOAD,U,12051A,2024-03-15 20:54:42,740928,1.00270666,0.0002487,0.0697,250.8699,26.307,238.5978,0,999,3287,0,1.39e-06,0,4227250,0 ASTRA 2F,1 38778U 12051A   24075.87132802  .00000139  00000-0  00000-0 0  9994,2 38778   0.0697 250.8699 0002487  26.3070 238.5978  1.00270666 32875,2012-051A,38778,42165.046,1436.113,35797.397,35776.424,0
GENERATED VIA SPACETRACK.ORG API,18 SPCS,38778,ASTRA 2F,PAYLOAD,U,12051A,2024-03-16 04:15:34,176096,1.00270876,0.0002483,0.0687,250.5336,26.795,348.9612,0,999,4203,0,1.38e-06,0,4227701,0 ASTRA 2F,1 38778U 12051A   24076.17747889  .00000138  00000-0  00000+0 0  9993,2 38778   0.0687 250.5336 0002483  26.7950 348.9612  1.00270876 42039,2012-051A,38778,42164.987,1436.11,35797.321,35776.382,0
GENERATED VIA SPACETRACK.ORG API,18 SPCS,38778,ASTRA 2F,PAYLOAD,U,12051A,2024-03-16 12:42:42,870240,1.00271092,0.0002481,0.0678,250.3451,27.303,115.774,0,999,3287,0,1.38e-06,0,4228482,0 ASTRA 2F,1 38778U 12051A   24076.52966285  .00000138  00000-0  00000-0 0  9996,2 38778   0.0678 250.3451 0002481  27.3030 115.7740  1.00271092 32873,2012-051A,38778,42164.926,1436.107,35797.252,35776.33,0
GENERATED VIA SPACETRACK.ORG API,18 SPCS,38778,ASTRA 2F,PAYLOAD,U,12051A,2024-03-16 20:45:42,683904,1.00271309,0.0002449,0.0671,249.9569,27.7946,236.7499,0,999,3288,0,1.37e-06,0,4229019,0 ASTRA 2F,1 38778U 12051A   24076.86507736  .00000137  00000-0  00000-0 0  9994,2 38778   0.0671 249.9569 0002449  27.7946 236.7499  1.00271309 32881,2012-051A,38778,42164.865,1436.104,35797.057,35776.404,0
GENERATED VIA SPACETRACK.ORG API,18 SPCS,38778,ASTRA 2F,PAYLOAD,U,12051A,2024-03-17 04:18:56,655360,1.00271516,0.0002436,0.0661,249.581,28.3651,350.1734,0,999,4204,0,1.37e-06,0,4229455,0 ASTRA 2F,1 38778U 12051A   24077.17982240  .00000137  00000-0  00000+0 0  9995,2 38778   0.0661 249.5810 0002436  28.3651 350.1734  1.00271516 42043,2012-051A,38778,42164.807,1436.101,35796.944,35776.401,0
GENERATED VIA SPACETRACK.ORG API,18 SPCS,38778,ASTRA 2F,PAYLOAD,U,12051A,2024-03-17 13:32:42,690336,1.00271747,0.0002422,0.0652,249.3091,29.0812,128.5498,0,999,3288,0,1.37e-06,0,4230125,0 ASTRA 2F,1 38778U 12051A   24077.56438299  .00000137  00000-0  00000-0 0  9999,2 38778   0.0652 249.3091 0002422  29.0812 128.5498  1.00271747 32885,2012-051A,38778,42164.743,1436.097,35796.82,35776.395,0
GENERATED VIA SPACETRACK.ORG API,18 SPCS,38778,ASTRA 2F,PAYLOAD,U,12051A,2024-03-17 19:46:52,164768,1.00271919,0.0002399,0.0647,248.9343,29.4973,222.3042,0,999,3289,0,1.37e-06,0,4230670,0 ASTRA 2F,1 38778U 12051A   24077.82421487  .00000137  00000-0  00000-0 0  9999,2 38778   0.0647 248.9343 0002399  29.4973 222.3042  1.00271919 32899,2012-051A,38778,42164.694,1436.095,35796.675,35776.444,0
GENERATED VIA SPACETRACK.ORG API,18 SPCS,38778,ASTRA 2F,PAYLOAD,U,12051A,2024-03-18 04:22:18,636960,1.0027214,0.0002376,0.0637,248.507,30.0706,351.3719,0,999,4205,0,1.36e-06,0,4231061,0 ASTRA 2F,1 38778U 12051A   24078.18216015  .00000136  00000-0  00000+0 0  9996,2 38778   0.0637 248.5070 0002376  30.0706 351.3719  1.00272140 42058,2012-051A,38778,42164.632,1436.092,35796.516,35776.479,0
GENERATED VIA SPACETRACK.ORG API,18 SPCS,38778,ASTRA 2F,PAYLOAD,U,12051A,2024-03-18 13:16:42,508992,1.00272352,0.0002359,0.0628,248.2104,30.8398,124.865,0,999,3289,0,1.36e-06,0,4231680,0 ASTRA 2F,1 38778U 12051A   24078.55326978  .00000136  00000-0  00000-0 0  9998,2 38778   0.0628 248.2104 0002359  30.8398 124.8650  1.00272352 32892,2012-051A,38778,42164.573,1436.089,35796.385,35776.491,0
GENERATED VIA SPACETRACK.ORG API,18 SPCS,38778,ASTRA 2F,PAYLOAD,U,12051A,2024-03-18 20:44:42,611712,1.00272551,0.0002331,0.0622,247.7595,31.2687,237.1949,0,999,3290,0,1.36e-06,0,4232179,0 ASTRA 2F,1 38778U 12051A   24078.86438208  .00000136  00000-0  00000-0 0  9992,2 38778   0.0622 247.7595 0002331  31.2687 237.1949  1.00272551 32902,2012-051A,38778,42164.517,1436.086,35796.211,35776.554,0
GENERATED VIA SPACETRACK.ORG API,18 SPCS,38778,ASTRA 2F,PAYLOAD,U,12051A,2024-03-19 00:59:36,895200,1.0027266,0.0002309,0.0617,247.6172,31.4157,301.0916,0,999,3290,0,1.36e-06,0,4233772,0 ASTRA 2F,1 38778U 12051A   24079.04139925  .00000136  00000-0  00000-0 0  9997,2 38778   0.0617 247.6172 0002309  31.4157 301.0916  1.00272660 32901,2012-051A,38778,42164.487,1436.084,35796.087,35776.616,0
GENERATED VIA SPACETRACK.ORG API,18 SPCS,38778,ASTRA 2F,PAYLOAD,U,12051A,2024-03-20 05:35:42,649728,1.0027458,0.0002202,0.0868,255.9308,16.7112,17.6915,0,999,4207,0,1.37e-06,0,4234647,0 ASTRA 2F,1 38778U 12051A   24080.23313252  .00000137  00000-0  00000+0 0  9997,2 38778   0.0868 255.9308 0002202  16.7112  17.6915  1.00274580 42072,2012-051A,38778,42163.948,1436.057,35795.098,35776.529,0
GENERATED VIA SPACETRACK.ORG API,18 SPCS,38778,ASTRA 2F,PAYLOAD,U,12051A,2024-03-20 05:35:42,649728,1.0027458,0.0002202,0.0868,255.9308,16.7112,17.6915,0,999,3291,0,1.37e-06,0,4234892,0 ASTRA 2F,1 38778U 12051A   24080.23313252  .00000137  00000-0  00000-0 0  9998,2 38778   0.0868 255.9308 0002202  16.7112  17.6915  1.00274580 32914,2012-051A,38778,42163.948,1436.057,35795.098,35776.529,0
GENERATED VIA SPACETRACK.ORG API,18 SPCS,38778,ASTRA 2F,PAYLOAD,U,12051A,2024-03-20 18:14:00,507840,1.00274842,0.0002207,0.0857,255.7743,17.6618,206.9967,0,999,3291,0,1.38e-06,0,4235427,0 ASTRA 2F,1 38778U 12051A   24080.75972810  .00000138  00000-0  00000-0 0  9997,2 38778   0.0857 255.7743 0002207  17.6618 206.9967  1.00274842 32910,2012-051A,38778,42163.875,1436.053,35795.046,35776.434,0
GENERATED VIA SPACETRACK.ORG API,18 SPCS,38778,ASTRA 2F,PAYLOAD,U,12051A,2024-03-21 16:34:16,82688,1.00275333,0.0002122,0.0836,255.1454,18.2986,182.9823,0,999,4209,0,1.4e-06,0,4237121,0 ASTRA 2F,1 38778U 12051A   24081.69046392  .00000140  00000-0  00000+0 0  9990,2 38778   0.0836 255.1454 0002122  18.2986 182.9823  1.00275333 42091,2012-051A,38778,42163.737,1436.046,35794.55,35776.655,0
GENERATED VIA SPACETRACK.ORG API,18 SPCS,38778,ASTRA 2F,PAYLOAD,U,12051A,2024-03-21 16:34:16,82688,1.00275333,0.0002122,0.0836,255.1454,18.2986,182.9823,0,999,3292,0,1.4e-06,0,4237326,0 ASTRA 2F,1 38778U 12051A   24081.69046392  .00000140  00000-0  00000-0 0  9991,2 38778   0.0836 255.1454 0002122  18.2986 182.9823  1.00275333 32922,2012-051A,38778,42163.737,1436.046,35794.55,35776.655,0
GENERATED VIA SPACETRACK.ORG API,18 SPCS,38778,ASTRA 2F,PAYLOAD,U,12051A,2024-03-22 01:29:42,535104,1.00275495,0.0002079,0.0827,254.9614,18.0522,317.6447,0,999,3293,0,1.41e-06,0,4238588,0 ASTRA 2F,1 38778U 12051A   24082.06229786  .00000141  00000-0  00000-0 0  9994,2 38778   0.0827 254.9614 0002079  18.0522 317.6447  1.00275495 32931,2012-051A,38778,42163.692,1436.044,35794.323,35776.791,0
GENERATED VIA SPACETRACK.ORG API,18 SPCS,38778,ASTRA 2F,PAYLOAD,U,12051A,2024-03-22 14:54:37,893024,1.00275887,0.0002065,0.0815,254.5839,18.5819,159.2824,0,999,3293,0,1.42e-06,0,4239209,0 ASTRA 2F,1 38778U 12051A   24082.62127191  .00000142  00000-0  00000-0 0  9994,2 38778   0.0815 254.5839 0002065  18.5819 159.2824  1.00275887 32936,2012-051A,38778,42163.582,1436.038,35794.154,35776.74,0
